TRANSPORTER-12 OBJECT AZ
1 62656U 25009AZ  26068.71026235  .00016057  00000+0  54903-3 0  9991
2 62656  97.3981 151.9913 0000987  45.3581 314.7740 15.30349724 63792
STARLINK-33798          
1 63449U 25069S   26068.51509559  .00025718  00000+0  87810-3 0  9998
2 63449  53.1588 143.5823 0001345 106.1382 253.9767 15.30175783 53106
