[{"OBJECT_NAME":"TRANSPORTER-12 OBJECT AZ","OBJECT_ID":"2025-009AZ","EPOCH":"2026-03-09T17:02:46.667040","MEAN_MOTION":15.30349724,"ECCENTRICITY":9.87e-5,"INCLINATION":97.3981,"RA_OF_ASC_NODE":151.9913,"ARG_OF_PERICENTER":45.3581,"MEAN_ANOMALY":314.774,"EPHEMERIS_TYPE":0,"CLASSIFICATION_TYPE":"U","NORAD_CAT_ID":62656,"ELEMENT_SET_NO":999,"REV_AT_EPOCH":6379,"BSTAR":0.00054902545,"MEAN_MOTION_DOT":0.00016057,"MEAN_MOTION_DDOT":0},{"OBJECT_NAME":"STARLINK-33798","OBJECT_ID":"2025-069S","EPOCH":"2026-03-09T12:21:44.258976","MEAN_MOTION":15.30175783,"ECCENTRICITY":0.00013459,"INCLINATION":53.1588,"RA_OF_ASC_NODE":143.5823,"ARG_OF_PERICENTER":106.1382,"MEAN_ANOMALY":253.9767,"EPHEMERIS_TYPE":0,"CLASSIFICATION_TYPE":"U","NORAD_CAT_ID":63449,"ELEMENT_SET_NO":999,"REV_AT_EPOCH":5310,"BSTAR":0.00087810367,"MEAN_MOTION_DOT":0.00025718,"MEAN_MOTION_DDOT":0}]
